[
    {
        "Altitude(m)": 707458.0408709941,
        "Argument of Periapsis(deg)": 0.009112096949301655,
        "Eccentricity": 0.0,
        "Inclination(deg)": 45.0,
        "Latitude(deg)": -17.9380486940906,
        "Longitude(deg)": -161.82993991955436,
        "Mean Anomaly(deg)": 205.59017331798464,
        "RAAN(deg)": 99.99139844683343,
        "Satellite Name": "Constellation 1 452",
        "Satellite Number": 452,
        "Semi-Major Axis(m)": 7083131.272910544,
        "Time(s)": 152
    },
    {
        "Altitude(m)": 707470.6855071082,
        "Argument of Periapsis(deg)": 0.009172044955547059,
        "Eccentricity": 0.0,
        "Inclination(deg)": 45.0,
        "Latitude(deg)": -17.978882036653577,
        "Longitude(deg)": -161.7867626630799,
        "Mean Anomaly(deg)": 205.6508744582345,
        "RAAN(deg)": 99.99134185766786,
        "Satellite Name": "Constellation 1 452",
        "Satellite Number": 452,
        "Semi-Major Axis(m)": 7083131.272910544,
        "Time(s)": 153
    },
    {
        "Altitude(m)": 707483.3403401462,
        "Argument of Periapsis(deg)": 0.009231992961792466,
        "Eccentricity": 0.0,
        "Inclination(deg)": 45.0,
        "Latitude(deg)": -18.01970358350637,
        "Longitude(deg)": -161.74356378948974,
        "Mean Anomaly(deg)": 205.7115755984845,
        "RAAN(deg)": 99.99128526850228,
        "Satellite Name": "Constellation 1 452",
        "Satellite Number": 452,
        "Semi-Major Axis(m)": 7083131.272910544,
        "Time(s)": 154
    },
    {
        "Altitude(m)": 707496.0053300336,
        "Argument of Periapsis(deg)": 0.009291940968037872,
        "Eccentricity": 0.0,
        "Inclination(deg)": 45.0,
        "Latitude(deg)": -18.06051330123333,
        "Longitude(deg)": -161.7003432424015,
        "Mean Anomaly(deg)": 205.77227673873438,
        "RAAN(deg)": 99.99122867933673,
        "Satellite Name": "Constellation 1 452",
        "Satellite Number": 452,
        "Semi-Major Axis(m)": 7083131.272910544,
        "Time(s)": 155
    },
    {
        "Altitude(m)": 707508.6804366317,
        "Argument of Periapsis(deg)": 0.009351888974283276,
        "Eccentricity": 0.0,
        "Inclination(deg)": 45.0,
        "Latitude(deg)": -18.101311156376514,
        "Longitude(deg)": -161.6571011334999,
        "Mean Anomaly(deg)": 205.8329778789842,
        "RAAN(deg)": 99.99117209017116,
        "Satellite Name": "Constellation 1 452",
        "Satellite Number": 452,
        "Semi-Major Axis(m)": 7083131.272910544,
        "Time(s)": 156
    },
    {
        "Altitude(m)": 707521.3656197584,
        "Argument of Periapsis(deg)": 0.00941183698052868,
        "Eccentricity": 0.0,
        "Inclination(deg)": 45.0,
        "Latitude(deg)": -18.14209711543655,
        "Longitude(deg)": -161.61383707014875,
        "Mean Anomaly(deg)": 205.89367901923416,
        "RAAN(deg)": 99.99111550100558,
        "Satellite Name": "Constellation 1 452",
        "Satellite Number": 452,
        "Semi-Major Axis(m)": 7083131.272910544,
        "Time(s)": 157
    },
    {
        "Altitude(m)": 707534.0608391765,
        "Argument of Periapsis(deg)": 0.009471784986774088,
        "Eccentricity": 0.0,
        "Inclination(deg)": 45.0,
        "Latitude(deg)": -18.182871144870703,
        "Longitude(deg)": -161.57055116397328,
        "Mean Anomaly(deg)": 205.95438015948406,
        "RAAN(deg)": 99.99105891184001,
        "Satellite Name": "Constellation 1 452",
        "Satellite Number": 452,
        "Semi-Major Axis(m)": 7083131.272910544,
        "Time(s)": 158
    },
    {
        "Altitude(m)": 707546.7660545872,
        "Argument of Periapsis(deg)": 0.009531732993019492,
        "Eccentricity": 0.0,
        "Inclination(deg)": 45.0,
        "Latitude(deg)": -18.223633211093965,
        "Longitude(deg)": -161.527243358472,
        "Mean Anomaly(deg)": 206.01508129973396,
        "RAAN(deg)": 99.99100232267446,
        "Satellite Name": "Constellation 1 452",
        "Satellite Number": 452,
        "Semi-Major Axis(m)": 7083131.272910544,
        "Time(s)": 159
    },
    {
        "Altitude(m)": 707559.4812256538,
        "Argument of Periapsis(deg)": 0.009591680999264898,
        "Eccentricity": 0.0,
        "Inclination(deg)": 45.0,
        "Latitude(deg)": -18.264383280478793,
        "Longitude(deg)": -161.48391359711363,
        "Mean Anomaly(deg)": 206.0757824399838,
        "RAAN(deg)": 99.99094573350888,
        "Satellite Name": "Constellation 1 452",
        "Satellite Number": 452,
        "Semi-Major Axis(m)": 7083131.272910544,
        "Time(s)": 160
    },
    {
        "Altitude(m)": 707572.2063119703,
        "Argument of Periapsis(deg)": 0.009651629005510304,
        "Eccentricity": 0.0,
        "Inclination(deg)": 45.0,
        "Latitude(deg)": -18.30512131935484,
        "Longitude(deg)": -161.44056182333728,
        "Mean Anomaly(deg)": 206.13648358023374,
        "RAAN(deg)": 99.99088914434331,
        "Satellite Name": "Constellation 1 452",
        "Satellite Number": 452,
        "Semi-Major Axis(m)": 7083131.272910544,
        "Time(s)": 161
    },
    {
        "Altitude(m)": 707584.9412730869,
        "Argument of Periapsis(deg)": 0.00971157701175571,
        "Eccentricity": 0.0,
        "Inclination(deg)": 45.0,
        "Latitude(deg)": -18.34584729400889,
        "Longitude(deg)": -161.3971879805524,
        "Mean Anomaly(deg)": 206.19718472048362,
        "RAAN(deg)": 99.99083255517773,
        "Satellite Name": "Constellation 1 452",
        "Satellite Number": 452,
        "Semi-Major Axis(m)": 7083131.272910544,
        "Time(s)": 162
    },
    {
        "Altitude(m)": 707597.6860685005,
        "Argument of Periapsis(deg)": 0.009771525018001118,
        "Eccentricity": 0.0,
        "Inclination(deg)": 45.0,
        "Latitude(deg)": -18.386561170684438,
        "Longitude(deg)": -161.3537921802359,
        "Mean Anomaly(deg)": 206.25788586073352,
        "RAAN(deg)": 99.99077596601218,
        "Satellite Name": "Constellation 1 452",
        "Satellite Number": 452,
        "Semi-Major Axis(m)": 7083131.272910544,
        "Time(s)": 163
    },
    {
        "Altitude(m)": 707610.4406576575,
        "Argument of Periapsis(deg)": 0.00983147302424652,
        "Eccentricity": 0.0,
        "Inclination(deg)": 45.0,
        "Latitude(deg)": -18.427262915582844,
        "Longitude(deg)": -161.31037402954396,
        "Mean Anomaly(deg)": 206.31858700098343,
        "RAAN(deg)": 99.99071937684661,
        "Satellite Name": "Constellation 1 452",
        "Satellite Number": 452,
        "Semi-Major Axis(m)": 7083131.272910544,
        "Time(s)": 164
    },
    {
        "Altitude(m)": 707623.2049999407,
        "Argument of Periapsis(deg)": 0.009891421030491928,
        "Eccentricity": 0.0,
        "Inclination(deg)": 45.0,
        "Latitude(deg)": -18.467952494861297,
        "Longitude(deg)": -161.2669336398944,
        "Mean Anomaly(deg)": 206.37928814123336,
        "RAAN(deg)": 99.99066278768103,
        "Satellite Name": "Constellation 1 452",
        "Satellite Number": 452,
        "Semi-Major Axis(m)": 7083131.272910544,
        "Time(s)": 165
    },
    {
        "Altitude(m)": 707635.9790546983,
        "Argument of Periapsis(deg)": 0.009951369036737332,
        "Eccentricity": 0.0,
        "Inclination(deg)": 45.0,
        "Latitude(deg)": -18.508629874633968,
        "Longitude(deg)": -161.22347095457846,
        "Mean Anomaly(deg)": 206.43998928148324,
        "RAAN(deg)": 99.99060619851547,
        "Satellite Name": "Constellation 1 452",
        "Satellite Number": 452,
        "Semi-Major Axis(m)": 7083131.272910544,
        "Time(s)": 166
    },
    {
        "Altitude(m)": 707648.7627812065,
        "Argument of Periapsis(deg)": 0.010011317042982738,
        "Eccentricity": 0.0,
        "Inclination(deg)": 45.0,
        "Latitude(deg)": -18.549295020971595,
        "Longitude(deg)": -161.179985916858,
        "Mean Anomaly(deg)": 206.50069042173314,
        "RAAN(deg)": 99.99054960934988,
        "Satellite Name": "Constellation 1 452",
        "Satellite Number": 452,
        "Semi-Major Axis(m)": 7083131.272910544,
        "Time(s)": 167
    },
    {
        "Altitude(m)": 707661.5561387063,
        "Argument of Periapsis(deg)": 0.010071265049228144,
        "Eccentricity": 0.0,
        "Inclination(deg)": 45.0,
        "Latitude(deg)": -18.58994789990146,
        "Longitude(deg)": -161.13647846996528,
        "Mean Anomaly(deg)": 206.56139156198307,
        "RAAN(deg)": 99.99049302018432,
        "Satellite Name": "Constellation 1 452",
        "Satellite Number": 452,
        "Semi-Major Axis(m)": 7083131.272910544,
        "Time(s)": 168
    },
    {
        "Altitude(m)": 707674.3590863824,
        "Argument of Periapsis(deg)": 0.01013121305547355,
        "Eccentricity": 0.0,
        "Inclination(deg)": 45.0,
        "Latitude(deg)": -18.630588477406963,
        "Longitude(deg)": -161.09294855710345,
        "Mean Anomaly(deg)": 206.62209270223292,
        "RAAN(deg)": 99.99043643101876,
        "Satellite Name": "Constellation 1 452",
        "Satellite Number": 452,
        "Semi-Major Axis(m)": 7083131.272910544,
        "Time(s)": 169
    },
    {
        "Altitude(m)": 707687.1715833604,
        "Argument of Periapsis(deg)": 0.010191161061718957,
        "Eccentricity": 0.0,
        "Inclination(deg)": 45.0,
        "Latitude(deg)": -18.671216719427917,
        "Longitude(deg)": -161.04939612144602,
        "Mean Anomaly(deg)": 206.6827938424828,
        "RAAN(deg)": 99.99037984185318,
        "Satellite Name": "Constellation 1 452",
        "Satellite Number": 452,
        "Semi-Major Axis(m)": 7083131.272910544,
        "Time(s)": 170
    }
]